ZHOU ENLAI              
1 43156U 18008B   21042.90209346  .00001144  00000-0  70711-4 0  9998
2 43156  97.4242 111.4046 0015640  47.5577   7.1697 15.11697452169048
QUANTUTONG 1            
1 43158U 18008D   21042.68406199  .00000673  00000-0  43736-4 0  9993
2 43158  97.4173 109.9417 0014809  45.4485 106.6309 15.11166023168946
S-NET D                 
1 43186U 18014G   21042.56147048  .00000790  00000-0  73700-4 0  9997
2 43186  97.6860 312.3613 0012114 137.1109 223.1060 14.96966646165463
S-NET B                 
1 43187U 18014H   21042.49450462  .00000791  00000-0  73771-4 0  9996
2 43187  97.6858 312.2664 0012115 137.3118 222.9047 14.96966084165456
S-NET A                 
1 43188U 18014J   21042.49445173  .00000794  00000-0  74038-4 0  9990
2 43188  97.6861 312.3056 0012118 137.3735 222.8429 14.96964713165455
S-NET C                 
1 43189U 18014K   21042.49493943  .00000787  00000-0  73445-4 0  9992
2 43189  97.6857 312.2604 0012104 137.2811 222.9354 14.96965167164000
FENGMANIU-1 (FMN-1)     
1 43192U 18015A   21042.90705922  .00002758  00000-0  10659-3 0  9993
2 43192  97.4679 177.9071 0014123 330.5178 145.8258 15.27025649168428
SHAONIAN XING           
1 43199U 18015H   21042.90196424  .00001893  00000-0  74485-4 0  9998
2 43199  97.4468 175.4958 0015277 340.6267 147.3744 15.26809203168488
LUOJIA-1 01             
1 43485U 18048B   21042.71595357  .00000107  00000-0  22547-4 0  9998
2 43485  97.9711 126.0572 0010823 349.6861  10.4129 14.76789702145439
RADSAT-G                
1 43553U 98067PB  21042.49345711  .00073168  00000-0  24326-3 0  9998
2 43553  51.6367 145.4624 0005232 306.6859  53.3666 15.89598623147855
SURFSAT                 
1 43614U 18070B   21042.73953746  .00002734  00000-0  66434-4 0  9990
2 43614  93.0232 253.7737 0016592 125.2100 235.0712 15.40925475135301
CP7 (DAVE)              
1 43615U 18070C   21042.54018576  .00002590  00000-0  63430-4 0  9996
2 43615  93.0235 253.6625 0016766 125.8211 234.4604 15.40681235135263
ELFIN-B                 
1 43616U 18070D   21042.57687511  .00004195  00000-0  95370-4 0  9992
2 43616  93.0192 253.7402 0016761 125.1473 235.1357 15.42888596135352
ELFIN-A                 
1 43617U 18070E   21042.56981986  .00004454  00000-0  10012-3 0  9992
2 43617  93.0246 254.4642 0016169 122.1519 238.1309 15.43234904135367
1998-067PP              
1 43639U 98067PP  21042.66626942  .00128183  17568-4  33396-3 0  9996
2 43639  51.6266 149.2818 0004958 313.0680  46.9912 15.94739141134545
STARS-ME                
1 43640U 98067PQ  21042.52375024  .00031953  00000-0  18807-3 0  9992
2 43640  51.6314 167.2434 0003111 239.7641 120.3052 15.77906710134299
CZ-4B R/B               
1 43656U 18081B   21042.50329927 -.00000005  00000-0  15405-4 0  9993
2 43656  99.3653 133.0789 0209423 115.0370 247.2712 14.30454145120165
CUBEBEL-1 (BSUSAT-1)    
1 43666U 18083E   21042.83470734  .00001202  00000-0  60822-4 0  9997
2 43666  97.4702  72.7280 0013269 244.1300 220.0134 15.18900758126945
CHANGSHAGAOXIN (TY 4-01)
1 43669U 18083H   21042.86294273  .00001048  00000-0  55176-4 0  9999
2 43669  97.4585  70.2138 0009356 235.8225 249.9229 15.17786646126837
TEN-KOH                 
1 43677U 18084G   21042.57592005  .00000049  00000-0  10947-4 0  9998
2 43677  97.9032 165.4377 0017453  90.2520 270.0697 14.90398576124550
DIWATA-2B               
1 43678U 18084H   21042.75039969 -.00000293  00000-0 -23395-4 0  9998
2 43678  97.9057 167.5319 0011376 104.0703 256.1785 14.91702618124697
STARS-AO                
1 43679U 18084J   21042.31934539  .00000068  00000-0  12305-4 0  9995
2 43679  97.9098 168.1201 0010505 112.4611 247.7721 14.92399361124676
AUTCUBE 2               
1 43681U 18084K   21042.58226567  .00000036  00000-0  92819-5 0  9996
2 43681  97.9065 167.6290 0010887 105.9792 254.2627 14.91995249124646
IRVINE01                
1 43693U 18088D   21042.63730348  .00002185  00000-0  86924-4 0  9992
2 43693  85.0328 278.5165 0018573 125.0127 235.2863 15.24464313125267
ES'HAIL 2               
1 43700U 18090A   21042.66517550  .00000128  00000-0  00000+0 0  9996
2 43700   0.0216 122.2152 0002063 240.9209  44.0980  1.00273285  8356
FACSAT-1                
1 43721U 18096C   21042.89703488  .00001848  00000-0  69721-4 0  9997
2 43721  97.3983 120.9890 0016974   2.0874  58.1392 15.28210103122944
CENTAURI-2              
1 43722U 18096D   21042.48109813  .00001930  00000-0  70835-4 0  9995
2 43722  97.3994 121.1422 0016695   2.6426 357.4899 15.29069396122900
3CAT-1                  
1 43728U 18096K   21042.84837161  .00002480  00000-0  89426-4 0  9992
2 43728  97.4004 122.0055 0016746   5.8385 104.4793 15.29377597122983
INNOSAT-2               
1 43738U 18096V   21042.80817028  .00003654  00000-0  11941-3 0  9999
2 43738  97.4041 124.5380 0021948   3.4619  91.4953 15.32161808123150
REAKTOR HELLO WORLD     
1 43743U 18096AA  21042.69202347  .00001212  00000-0  46631-4 0  9997
2 43743  97.3978 121.1495 0017502   7.7242 352.4263 15.28228582122920
ELYSIUM STAR 2 & LFF    
1 43760U 18099C   21042.46253171  .00000510  00000-0  50395-4 0  9997
2 43760  97.6842 116.2049 0015057 109.2695 251.0170 14.96053242119677
2018-099D               
1 43761U 18099D   21042.47285240  .00000166  00000-0  20271-4 0  9998
2 43761  97.6820 115.7822 0015847 111.2143 249.0788 14.95232269119641
AISTECHSAT 2            
1 43768U 18099L   21042.46188861  .00000323  00000-0  34838-4 0  9994
2 43768  97.6774 114.8131 0012908 109.0662 251.1958 14.94813232119327
FOX-1CLIFF (AO-95)      
1 43770U 18099N   21042.44057001 -.00000114  00000-0 -51544-5 0  9990
2 43770  97.6800 115.3353 0015857 116.8587 243.4257 14.95192871119629
RANGE-A                 
1 43772U 18099Q   21042.22513734  .00000627  00000-0  61731-4 0  9993
2 43772  97.6880 115.9330 0015696 105.8425 254.4528 14.95454927119592
RANGE-B                 
1 43773U 18099R   21042.43829575 -.00000174  00000-0 -10697-4 0  9994
2 43773  97.6738 114.7764 0014972 104.9186 255.3694 14.95119371119611
2018-099T               
1 43775U 18099T   21042.44587347 -.00000231  00000-0 -15819-4 0  9990
2 43775  97.6802 115.5481 0015996 108.7442 251.5516 14.95201016119624
MOVE-II                 
1 43780U 18099Y   21042.44983540  .00000123  00000-0  16119-4 0  9993
2 43780  97.6810 115.7449 0014741 114.6236 245.6522 14.95719393119633
SNUSAT-2                
1 43782U 18099AA  21042.42709353  .00000271  00000-0  29620-4 0  9996
2 43782  97.6799 115.6192 0014323 104.0608 256.2206 14.95446080119634
SNUGLITE                
1 43784U 18099AC  21042.44558559 -.00000128  00000-0 -63922-5 0  9997
2 43784  97.6761 115.3973 0016405 111.5635 248.7336 14.95557467119659
ITASAT 1                
1 43786U 18099AE  21042.45216116 -.00000076  00000-0 -17333-5 0  9997
2 43786  97.6816 115.9368 0016512 110.9236 249.3755 14.95502887119653
KAZSCISAT-1             
1 43787U 18099AF  21042.47916250  .00000922  00000-0  87326-4 0  9992
2 43787  97.6729 115.2037 0015780 108.5613 251.7324 14.95910762119677
EAGLET-I                
1 43790U 18099AJ  21042.45041416 -.00000145  00000-0 -78751-5 0  9999
2 43790  97.6805 116.2951 0014753 114.3967 245.8795 14.95881482119377
ESEO                    
1 43792U 18099AL  21042.48423728  .00000521  00000-0  51845-4 0  9994
2 43792  97.6777 116.0134 0014856 111.1436 249.1374 14.95687356119439
CSIM-FD                 
1 43793U 18099AM  21042.50718183 -.00000038  00000-0  17630-5 0  9999
2 43793  97.6794 116.2355 0014362 108.7066 251.5716 14.96377127119439
ASTROCAST 0.1           
1 43798U 18099AS  21042.41539633  .00000710  00000-0  68229-4 0  9990
2 43798  97.6810 116.4146 0014048  96.2583 264.0239 14.96031171119670
JY1SAT (JO-97)          
1 43803U 18099AX  21042.43564900 -.00000021  00000-0  32103-5 0  9993
2 43803  97.6780 115.6899 0016534 110.6818 249.6178 14.95724534119653
SUOMI-100               
1 43804U 18099AY  21042.43897782 -.00000123  00000-0 -58942-5 0  9994
2 43804  97.6776 115.6691 0016568 110.7761 249.5237 14.95702106119661
AL-FARABI 2             
1 43805U 18099AZ  21042.52387253  .00000098  00000-0  13850-4 0  9999
2 43805  97.6782 115.9163 0016538 111.1892 249.1135 14.95877929119684
CENTAURI-1              
1 43809U 18099BD  21042.45194667 -.00000113  00000-0 -49974-5 0  9997
2 43809  97.6787 115.9618 0016513 112.0083 248.2895 14.95730784119368
PW-SAT2                 
1 43814U 18099BJ  21042.68848343  .00490086  00000-0  57463-2 0  9994
2 43814  97.7816 138.8086 0008548 274.7666  85.2613 15.59858297120161
CHOMPTT                 
1 43855U 18104G   21042.43309968  .00001159  00000-0  46655-4 0  9996
2 43855  85.0379  17.0049 0014909 248.8297 111.1353 15.23575976119908
DAVINCI                 
1 43857U 18104J   21042.52427142  .00002655  00000-0  10673-3 0  9995
2 43857  85.0333  16.9554 0012439 279.1584  80.8252 15.24349447119892
UWE-4                   
1 43880U 18111E   21042.70423524  .00000524  00000-0  50856-4 0  9990
2 43880  97.6957 312.5395 0012626 157.5267 202.6510 14.96725410114276
ZACUBE-2                
1 43907U 18111AH  21042.87138515  .00000706  00000-0  30967-4 0  9994
2 43907  97.2472 301.1451 0022044  22.1041  40.1477 15.24953941118492
MICRODRAGON             
1 43935U 19003D   21042.38586504  .00000742  00000-0  34274-4 0  9992
2 43935  97.1999  89.1406 0019642 109.9062 250.4293 15.22983348114913
AOBA VELOX-IV           
1 43940U 19003J   21042.40301250  .00002141  00000-0  84718-4 0  9997
2 43940  97.1974  91.1925 0024864  96.6932 263.7138 15.26230596115078
M6P                     
1 44109U 19018AF  21042.21219193  .00001998  00000-0  63542-4 0  9995
2 44109  97.4393 118.8340 0058498  83.1188 277.6704 15.32184960104123
SPOOQY-1                
1 44332U 98067QH  21042.48251409  .00017959  00000-0  17586-3 0  9999
2 44332  51.6338 210.0388 0004682 185.4784 174.6161 15.66184369 94292
